[{"OBJECT_NAME":"TIANMU-1 22","OBJECT_ID":"2023-208D","EPOCH":"2026-03-09T22:39:05.738688","MEAN_MOTION":15.29457749,"ECCENTRICITY":0.00031332,"INCLINATION":97.4379,"RA_OF_ASC_NODE":184.9419,"ARG_OF_PERICENTER":351.9312,"MEAN_ANOMALY":8.1877,"EPHEMERIS_TYPE":0,"CLASSIFICATION_TYPE":"U","NORAD_CAT_ID":58663,"ELEMENT_SET_NO":999,"REV_AT_EPOCH":12215,"BSTAR":0.00038239675,"MEAN_MOTION_DOT":0.00010851,"MEAN_MOTION_DDOT":0},{"OBJECT_NAME":"STARLINK-36091","OBJECT_ID":"2025-281A","EPOCH":"2026-03-09T04:18:42.042528","MEAN_MOTION":15.27588939,"ECCENTRICITY":0.00021245,"INCLINATION":43.0012,"RA_OF_ASC_NODE":346.6908,"ARG_OF_PERICENTER":234.1897,"MEAN_ANOMALY":125.8758,"EPHEMERIS_TYPE":0,"CLASSIFICATION_TYPE":"U","NORAD_CAT_ID":66848,"ELEMENT_SET_NO":999,"REV_AT_EPOCH":1478,"BSTAR":0.00099324701,"MEAN_MOTION_DOT":0.00027179,"MEAN_MOTION_DDOT":0}]
